{
    "links": {
        "self": "http://www.neowsapp.com/rest/v1/neo/3740938?api_key=iIulBulltgU6a56xZRHN4H3l9WmuAYTsLGpBGhQ2"
    },
    "id": "3740938",
    "neo_reference_id": "3740938",
    "name": "(2016 BH15)",
    "designation": "2016 BH15",
    "nasa_jpl_url": "http://ssd.jpl.nasa.gov/sbdb.cgi?sstr=3740938",
    "absolute_magnitude_h": 25.1,
    "estimated_diameter": {
        "kilometers": {
            "estimated_diameter_min": 0.0253837029,
            "estimated_diameter_max": 0.0567596853
        },
        "meters": {
            "estimated_diameter_min": 25.3837029364,
            "estimated_diameter_max": 56.7596852866
        },
        "miles": {
            "estimated_diameter_min": 0.0157726969,
            "estimated_diameter_max": 0.0352688224
        },
        "feet": {
            "estimated_diameter_min": 83.279867942,
            "estimated_diameter_max": 186.2194458756
        }
    },
    "is_potentially_hazardous_asteroid": false,
    "close_approach_data": [
        {
            "close_approach_date": "2016-01-30",
            "close_approach_date_full": "2016-Jan-30 19:39",
            "epoch_date_close_approach": 1454182740000,
            "relative_velocity": {
                "kilometers_per_second": "7.3210925714",
                "kilometers_per_hour": "26355.9332571053",
                "miles_per_hour": "16376.5519730052"
            },
            "miss_distance": {
                "astronomical": "0.0838091645",
                "lunar": "32.6017649905",
                "kilometers": "12537672.495679615",
                "miles": "7790548.436284087"
            },
            "orbiting_body": "Earth"
        }
    ],
    "orbital_data": {
        "orbit_id": "7",
        "orbit_determination_date": "2017-04-06 08:28:51",
        "first_observation_date": "2016-01-29",
        "last_observation_date": "2016-02-13",
        "data_arc_in_days": 15,
        "observations_used": 18,
        "orbit_uncertainty": "8",
        "minimum_orbit_intersection": ".0832646",
        "jupiter_tisserand_invariant": "4.393",
        "epoch_osculation": "2457418.5",
        "eccentricity": ".3090898063217498",
        "semi_major_axis": "1.538688891439462",
        "inclination": "12.21013504588383",
        "ascending_node_longitude": "125.0318611311559",
        "orbital_period": "697.147468174909",
        "perihelion_distance": "1.063095839995011",
        "perihelion_argument": "13.92085845925397",
        "aphelion_distance": "2.014281942883914",
        "perihelion_time": "2457427.368844849878",
        "mean_anomaly": "355.4202169674164",
        "mean_motion": ".5163900271236138",
        "equinox": "J2000",
        "orbit_class": {
            "orbit_class_type": "AMO",
            "orbit_class_description": "Near-Earth asteroid orbits similar to that of 1221 Amor",
            "orbit_class_range": "1.017 AU < q (perihelion) < 1.3 AU"
        }
    },
    "is_sentry_object": false
}